[{"OBJECT_NAME":"IRIDIUM 121","OBJECT_ID":"2017-039K","EPOCH":"2026-03-09T22:57:50.967360","MEAN_MOTION":14.34217682,"ECCENTRICITY":0.00021772,"INCLINATION":86.3973,"RA_OF_ASC_NODE":35.125,"ARG_OF_PERICENTER":87.8477,"MEAN_ANOMALY":272.2968,"EPHEMERIS_TYPE":0,"CLASSIFICATION_TYPE":"U","NORAD_CAT_ID":42812,"ELEMENT_SET_NO":999,"REV_AT_EPOCH":45560,"BSTAR":5.919812e-6,"MEAN_MOTION_DOT":3.6e-7,"MEAN_MOTION_DDOT":0},{"OBJECT_NAME":"FENGYUN 1C DEB","OBJECT_ID":"1999-025CPQ","EPOCH":"2026-03-08T21:15:42.510816","MEAN_MOTION":14.45718841,"ECCENTRICITY":0.00497,"INCLINATION":99.0485,"RA_OF_ASC_NODE":52.0484,"ARG_OF_PERICENTER":263.1686,"MEAN_ANOMALY":126.5874,"EPHEMERIS_TYPE":0,"CLASSIFICATION_TYPE":"U","NORAD_CAT_ID":31987,"ELEMENT_SET_NO":999,"REV_AT_EPOCH":97614,"BSTAR":0.0013675556,"MEAN_MOTION_DOT":4.869e-5,"MEAN_MOTION_DDOT":0}]
